{
  "type": "FeatureCollection",
  "features": [
    {
      "type": "Feature",
      "properties": {
        "norad_id": 52912,
        "name": "GAOFEN-12 03",
        "group": "resource",
        "lat": 1.1676381079965914,
        "lon": -116.06583004091975,
        "alt_km": 632.4993454396872,
        "timestamp": "2025-12-22T23:36:20.357583+00:00",
        "meta_object_name": "GAOFEN-12 03",
        "meta_object_id": "2022-069A",
        "meta_epoch": "2025-12-22T15:29:06.936288",
        "meta_mean_motion": 14.79629348,
        "meta_eccentricity": 0.00018666,
        "meta_inclination": 97.8485,
        "meta_ra_of_asc_node": 243.7648,
        "meta_arg_of_pericenter": 51.1886,
        "meta_mean_anomaly": 308.9492,
        "meta_ephemeris_type": 0,
        "meta_classification_type": "U",
        "meta_norad_cat_id": 52912,
        "meta_element_set_no": 999,
        "meta_rev_at_epoch": 18850,
        "meta_bstar": 0.00011164932,
        "meta_mean_motion_dot": 7.86e-06,
        "meta_mean_motion_ddot": 0,
        "tle_line1": "1 52912U 22069A   25356.64521917  .00000786  00000+0  11165-3 0  9991",
        "tle_line2": "2 52912  97.8485 243.7648 0001866  51.1886 308.9492 14.79629348188506"
      },
      "geometry": {
        "type": "Point",
        "coordinates": [
          -116.06583004091975,
          1.1676381079965914
        ]
      }
    },
    {
      "type": "Feature",
      "properties": {
        "norad_id": 54754,
        "name": "SWOT",
        "group": "resource",
        "lat": -62.08809551229686,
        "lon": -111.35239698799401,
        "alt_km": 900.444535869482,
        "timestamp": "2025-12-22T23:36:20.357593+00:00",
        "meta_object_name": "SWOT",
        "meta_object_id": "2022-173A",
        "meta_epoch": "2025-12-22T11:54:36.963360",
        "meta_mean_motion": 14.00168259,
        "meta_eccentricity": 3.778e-05,
        "meta_inclination": 77.6109,
        "meta_ra_of_asc_node": 273.8198,
        "meta_arg_of_pericenter": 84.4487,
        "meta_mean_anomaly": 275.6708,
        "meta_ephemeris_type": 0,
        "meta_classification_type": "U",
        "meta_norad_cat_id": 54754,
        "meta_element_set_no": 999,
        "meta_rev_at_epoch": 15442,
        "meta_bstar": 2.3585108e-05,
        "meta_mean_motion_dot": 3.2e-07,
        "meta_mean_motion_ddot": 0,
        "tle_line1": "1 54754U 22173A   25356.49626115  .00000032  00000+0  23585-4 0  9996",
        "tle_line2": "2 54754  77.6109 273.8198 0000377  84.4487 275.6708 14.00168259154424"
      },
      "geometry": {
        "type": "Point",
        "coordinates": [
          -111.35239698799401,
          -62.08809551229686
        ]
      }
    },
    {
      "type": "Feature",
      "properties": {
        "norad_id": 57654,
        "name": "GAOFEN-12 04",
        "group": "resource",
        "lat": 5.385286468437754,
        "lon": 93.33683140547598,
        "alt_km": 632.5865789381605,
        "timestamp": "2025-12-22T23:36:20.357603+00:00",
        "meta_object_name": "GAOFEN-12 04",
        "meta_object_id": "2023-123A",
        "meta_epoch": "2025-12-22T14:42:19.362240",
        "meta_mean_motion": 14.79726731,
        "meta_eccentricity": 0.000121,
        "meta_inclination": 97.9128,
        "meta_ra_of_asc_node": 272.2204,
        "meta_arg_of_pericenter": 78.0741,
        "meta_mean_anomaly": 282.0606,
        "meta_ephemeris_type": 0,
        "meta_classification_type": "U",
        "meta_norad_cat_id": 57654,
        "meta_element_set_no": 999,
        "meta_rev_at_epoch": 12651,
        "meta_bstar": 0.00016411933,
        "meta_mean_motion_dot": 1.182e-05,
        "meta_mean_motion_ddot": 0,
        "tle_line1": "1 57654U 23123A   25356.61272410  .00001182  00000+0  16412-3 0  9990",
        "tle_line2": "2 57654  97.9128 272.2204 0001210  78.0741 282.0606 14.79726731126511"
      },
      "geometry": {
        "type": "Point",
        "coordinates": [
          93.33683140547598,
          5.385286468437754
        ]
      }
    },
    {
      "type": "Feature",
      "properties": {
        "norad_id": 59065,
        "name": "PARS 1",
        "group": "resource",
        "lat": -49.0331391897877,
        "lon": -23.179198004816573,
        "alt_km": 449.5560861318281,
        "timestamp": "2025-12-22T23:36:20.357613+00:00",
        "meta_object_name": "PARS 1",
        "meta_object_id": "2024-039Q",
        "meta_epoch": "2025-12-22T14:28:14.951712",
        "meta_mean_motion": 15.41186059,
        "meta_eccentricity": 0.00118334,
        "meta_inclination": 97.4649,
        "meta_ra_of_asc_node": 327.7461,
        "meta_arg_of_pericenter": 42.2576,
        "meta_mean_anomaly": 317.958,
        "meta_ephemeris_type": 0,
        "meta_classification_type": "U",
        "meta_norad_cat_id": 59065,
        "meta_element_set_no": 999,
        "meta_rev_at_epoch": 10140,
        "meta_bstar": 0.0003010763,
        "meta_mean_motion_dot": 0.00012438,
        "meta_mean_motion_ddot": 0,
        "tle_line1": "1 59065U 24039Q   25356.60295083  .00012438  00000+0  30108-3 0  9999",
        "tle_line2": "2 59065  97.4649 327.7461 0011833  42.2576 317.9580 15.41186059101407"
      },
      "geometry": {
        "type": "Point",
        "coordinates": [
          -23.179198004816573,
          -49.0331391897877
        ]
      }
    },
    {
      "type": "Feature",
      "properties": {
        "norad_id": 59371,
        "name": "RESURS-P 4",
        "group": "resource",
        "lat": 56.7275516844511,
        "lon": 134.30095451674447,
        "alt_km": 463.60427121208886,
        "timestamp": "2025-12-22T23:36:20.357623+00:00",
        "meta_object_name": "RESURS-P 4",
        "meta_object_id": "2024-061A",
        "meta_epoch": "2025-12-22T15:14:08.746080",
        "meta_mean_motion": 15.32159186,
        "meta_eccentricity": 9.225e-05,
        "meta_inclination": 97.2563,
        "meta_ra_of_asc_node": 302.7625,
        "meta_arg_of_pericenter": 69.6501,
        "meta_mean_anomaly": 290.484,
        "meta_ephemeris_type": 0,
        "meta_classification_type": "U",
        "meta_norad_cat_id": 59371,
        "meta_element_set_no": 999,
        "meta_rev_at_epoch": 9672,
        "meta_bstar": 0.00013263983,
        "meta_mean_motion_dot": 4.042e-05,
        "meta_mean_motion_ddot": 0,
        "tle_line1": "1 59371U 24061A   25356.63482345  .00004042  00000+0  13264-3 0  9992",
        "tle_line2": "2 59371  97.2563 302.7625 0000922  69.6501 290.4840 15.32159186 96726"
      },
      "geometry": {
        "type": "Point",
        "coordinates": [
          134.30095451674447,
          56.7275516844511
        ]
      }
    },
    {
      "type": "Feature",
      "properties": {
        "norad_id": 59625,
        "name": "LEGION 1",
        "group": "resource",
        "lat": 45.96495770220338,
        "lon": -100.6123284322327,
        "alt_km": 514.0835489929077,
        "timestamp": "2025-12-22T23:36:20.357633+00:00",
        "meta_object_name": "LEGION 1",
        "meta_object_id": "2024-081A",
        "meta_epoch": "2025-12-22T13:31:04.084608",
        "meta_mean_motion": 15.16569802,
        "meta_eccentricity": 0.00036183,
        "meta_inclination": 97.5202,
        "meta_ra_of_asc_node": 71.1181,
        "meta_arg_of_pericenter": 271.8866,
        "meta_mean_anomaly": 88.1953,
        "meta_ephemeris_type": 0,
        "meta_classification_type": "U",
        "meta_norad_cat_id": 59625,
        "meta_element_set_no": 999,
        "meta_rev_at_epoch": 9076,
        "meta_bstar": 0.00027733051,
        "meta_mean_motion_dot": 5.347e-05,
        "meta_mean_motion_ddot": 0,
        "tle_line1": "1 59625U 24081A   25356.56324172  .00005347  00000+0  27733-3 0  9996",
        "tle_line2": "2 59625  97.5202  71.1181 0003618 271.8866  88.1953 15.16569802 90768"
      },
      "geometry": {
        "type": "Point",
        "coordinates": [
          -100.6123284322327,
          45.96495770220338
        ]
      }
    },
    {
      "type": "Feature",
      "properties": {
        "norad_id": 59626,
        "name": "LEGION 2",
        "group": "resource",
        "lat": -45.80678833926138,
        "lon": 79.43235708425001,
        "alt_km": 521.257564282213,
        "timestamp": "2025-12-22T23:36:20.357643+00:00",
        "meta_object_name": "LEGION 2",
        "meta_object_id": "2024-081B",
        "meta_epoch": "2025-12-22T11:08:29.277600",
        "meta_mean_motion": 15.16583054,
        "meta_eccentricity": 0.00056768,
        "meta_inclination": 97.5205,
        "meta_ra_of_asc_node": 71.1078,
        "meta_arg_of_pericenter": 251.4807,
        "meta_mean_anomaly": 108.5809,
        "meta_ephemeris_type": 0,
        "meta_classification_type": "U",
        "meta_norad_cat_id": 59626,
        "meta_element_set_no": 999,
        "meta_rev_at_epoch": 9075,
        "meta_bstar": 0.00025776137,
        "meta_mean_motion_dot": 4.967e-05,
        "meta_mean_motion_ddot": 0,
        "tle_line1": "1 59626U 24081B   25356.46422775  .00004967  00000+0  25776-3 0  9996",
        "tle_line2": "2 59626  97.5205  71.1078 0005676 251.4807 108.5809 15.16583054 90753"
      },
      "geometry": {
        "type": "Point",
        "coordinates": [
          79.43235708425001,
          -45.80678833926138
        ]
      }
    }
  ]
}